[{"OBJECT_NAME":"STARLINK-32758","OBJECT_ID":"2025-014K","EPOCH":"2026-03-09T06:26:00.363264","MEAN_MOTION":15.27595828,"ECCENTRICITY":7.965e-5,"INCLINATION":42.9949,"RA_OF_ASC_NODE":160.1651,"ARG_OF_PERICENTER":262.5243,"MEAN_ANOMALY":97.5518,"EPHEMERIS_TYPE":0,"CLASSIFICATION_TYPE":"U","NORAD_CAT_ID":62744,"ELEMENT_SET_NO":999,"REV_AT_EPOCH":6315,"BSTAR":0.00067211905,"MEAN_MOTION_DOT":0.00018288,"MEAN_MOTION_DDOT":0},{"OBJECT_NAME":"CZ-4C R\/B","OBJECT_ID":"2022-069B","EPOCH":"2026-03-09T22:08:25.149120","MEAN_MOTION":15.31915595,"ECCENTRICITY":0.00471341,"INCLINATION":97.9961,"RA_OF_ASC_NODE":42.6953,"ARG_OF_PERICENTER":87.2467,"MEAN_ANOMALY":273.4166,"EPHEMERIS_TYPE":0,"CLASSIFICATION_TYPE":"U","NORAD_CAT_ID":52913,"ELEMENT_SET_NO":999,"REV_AT_EPOCH":20482,"BSTAR":0.00043675127,"MEAN_MOTION_DOT":0.00013855,"MEAN_MOTION_DDOT":0}]
